STARLINK-35297          
1 66010U 25232F   25303.91668981 -.01814049  00000+0 -16664-1 0  9990
2 66010  53.1609 350.2747 0001439  74.6172  27.1083 15.70370918  2678
STARLINK-35256          
1 66011U 25232G   25303.91668981 -.01835205  00000+0 -16877-1 0  9994
2 66011  53.1588 350.2578 0001321  72.8431  36.5367 15.70386081  2672
STARLINK-35293          
1 66012U 25232H   25303.91668981 -.01838043  00000+0 -16907-1 0  9992
2 66012  53.1589 350.2697 0001123  67.6068  36.0209 15.70388911  2678
STARLINK-35307          
1 66013U 25232J   25303.91668981 -.01842321  00000+0 -16948-1 0  9992
2 66013  53.1587 350.2661 0001232  74.4508  31.0891 15.70393995  2607
STARLINK-35395          
1 66014U 25232K   25303.91668981 -.01838526  00000+0 -16912-1 0  9996
2 66014  53.1590 350.2618 0001243  74.1014  33.3611 15.70388513  2666
STARLINK-34622          
1 66015U 25232L   25303.91668981 -.01838035  00000+0 -16903-1 0  9992
2 66015  53.1589 350.2461 0001318  74.7302  40.3936 15.70391587  2562
STARLINK-35243          
1 66016U 25232M   25303.91668981 -.01837952  00000+0 -16907-1 0  9994
2 66016  53.1590 350.2499 0001134  72.2313  40.9819 15.70388136  2671
STARLINK-35398          
1 66017U 25232N   25303.91668981 -.01841569  00000+0 -16942-1 0  9993
2 66017  53.1589 350.2383 0001058  68.2318  50.7256 15.70393788  2591
STARLINK-35376          
1 66018U 25232P   25303.91668981 -.01838801  00000+0 -16911-1 0  9995
2 66018  53.1590 350.2421 0001359  70.1509  46.8886 15.70391987  2678
STARLINK-35382          
1 66019U 25232Q   25303.91668981 -.01836452  00000+0 -16889-1 0  9990
2 66019  53.1590 350.2534 0001185  71.0188  40.2735 15.70389628  2674
STARLINK-35430          
1 66020U 25232R   25303.91668981 -.01837548  00000+0 -16903-1 0  9996
2 66020  53.1587 350.2295 0001116  77.7596  45.0380 15.70388017  2665
STARLINK-35432          
1 66021U 25232S   25303.91668981 -.01837311  00000+0 -16899-1 0  9999
2 66021  53.1587 350.2336 0001155  79.1076  41.7727 15.70388642  2598
