CCSDS_OMM_VERS = 2.0
CREATION_DATE  = 
ORIGINATOR     = 

OBJECT_NAME    = STARLINK-35297
OBJECT_ID      = 2025-232F
CENTER_NAME    = EARTH
REF_FRAME      = TEME
TIME_SYSTEM    = UTC
MEAN_ELEMENT_THEORY = SGP/SGP4

EPOCH          = 2025-10-30T22:00:01.999584
MEAN_MOTION    = 15.70370918
ECCENTRICITY   = .00014393
INCLINATION    = 53.1609
RA_OF_ASC_NODE = 350.2747
ARG_OF_PERICENTER = 74.6172
MEAN_ANOMALY   = 27.1083

EPHEMERIS_TYPE = 0
CLASSIFICATION_TYPE = U
NORAD_CAT_ID   = 66010
ELEMENT_SET_NO = 999
REV_AT_EPOCH   = 267
BSTAR          = -.16663664E-1
MEAN_MOTION_DOT = -.1814049E-1
MEAN_MOTION_DDOT = 0

CCSDS_OMM_VERS = 2.0
CREATION_DATE  = 
ORIGINATOR     = 

OBJECT_NAME    = STARLINK-35256
OBJECT_ID      = 2025-232G
CENTER_NAME    = EARTH
REF_FRAME      = TEME
TIME_SYSTEM    = UTC
MEAN_ELEMENT_THEORY = SGP/SGP4

EPOCH          = 2025-10-30T22:00:01.999584
MEAN_MOTION    = 15.70386081
ECCENTRICITY   = .00013217
INCLINATION    = 53.1588
RA_OF_ASC_NODE = 350.2578
ARG_OF_PERICENTER = 72.8431
MEAN_ANOMALY   = 36.5367

EPHEMERIS_TYPE = 0
CLASSIFICATION_TYPE = U
NORAD_CAT_ID   = 66011
ELEMENT_SET_NO = 999
REV_AT_EPOCH   = 267
BSTAR          = -.16877418E-1
MEAN_MOTION_DOT = -.1835205E-1
MEAN_MOTION_DDOT = 0

CCSDS_OMM_VERS = 2.0
CREATION_DATE  = 
ORIGINATOR     = 

OBJECT_NAME    = STARLINK-35293
OBJECT_ID      = 2025-232H
CENTER_NAME    = EARTH
REF_FRAME      = TEME
TIME_SYSTEM    = UTC
MEAN_ELEMENT_THEORY = SGP/SGP4

EPOCH          = 2025-10-30T22:00:01.999584
MEAN_MOTION    = 15.70388911
ECCENTRICITY   = .00011239
INCLINATION    = 53.1589
RA_OF_ASC_NODE = 350.2697
ARG_OF_PERICENTER = 67.6068
MEAN_ANOMALY   = 36.0209

EPHEMERIS_TYPE = 0
CLASSIFICATION_TYPE = U
NORAD_CAT_ID   = 66012
ELEMENT_SET_NO = 999
REV_AT_EPOCH   = 267
BSTAR          = -.16907103E-1
MEAN_MOTION_DOT = -.1838043E-1
MEAN_MOTION_DDOT = 0

CCSDS_OMM_VERS = 2.0
CREATION_DATE  = 
ORIGINATOR     = 

OBJECT_NAME    = STARLINK-35307
OBJECT_ID      = 2025-232J
CENTER_NAME    = EARTH
REF_FRAME      = TEME
TIME_SYSTEM    = UTC
MEAN_ELEMENT_THEORY = SGP/SGP4

EPOCH          = 2025-10-30T22:00:01.999584
MEAN_MOTION    = 15.70393995
ECCENTRICITY   = .00012324
INCLINATION    = 53.1587
RA_OF_ASC_NODE = 350.2661
ARG_OF_PERICENTER = 74.4508
MEAN_ANOMALY   = 31.0891

EPHEMERIS_TYPE = 0
CLASSIFICATION_TYPE = U
NORAD_CAT_ID   = 66013
ELEMENT_SET_NO = 999
REV_AT_EPOCH   = 260
BSTAR          = -.16947874E-1
MEAN_MOTION_DOT = -.1842321E-1
MEAN_MOTION_DDOT = 0

CCSDS_OMM_VERS = 2.0
CREATION_DATE  = 
ORIGINATOR     = 

OBJECT_NAME    = STARLINK-35395
OBJECT_ID      = 2025-232K
CENTER_NAME    = EARTH
REF_FRAME      = TEME
TIME_SYSTEM    = UTC
MEAN_ELEMENT_THEORY = SGP/SGP4

EPOCH          = 2025-10-30T22:00:01.999584
MEAN_MOTION    = 15.70388513
ECCENTRICITY   = .00012432
INCLINATION    = 53.1590
RA_OF_ASC_NODE = 350.2618
ARG_OF_PERICENTER = 74.1014
MEAN_ANOMALY   = 33.3611

EPHEMERIS_TYPE = 0
CLASSIFICATION_TYPE = U
NORAD_CAT_ID   = 66014
ELEMENT_SET_NO = 999
REV_AT_EPOCH   = 266
BSTAR          = -.16911509E-1
MEAN_MOTION_DOT = -.1838526E-1
MEAN_MOTION_DDOT = 0

CCSDS_OMM_VERS = 2.0
CREATION_DATE  = 
ORIGINATOR     = 

OBJECT_NAME    = STARLINK-34622
OBJECT_ID      = 2025-232L
CENTER_NAME    = EARTH
REF_FRAME      = TEME
TIME_SYSTEM    = UTC
MEAN_ELEMENT_THEORY = SGP/SGP4

EPOCH          = 2025-10-30T22:00:01.999584
MEAN_MOTION    = 15.70391587
ECCENTRICITY   = .00013187
INCLINATION    = 53.1589
RA_OF_ASC_NODE = 350.2461
ARG_OF_PERICENTER = 74.7302
MEAN_ANOMALY   = 40.3936

EPHEMERIS_TYPE = 0
CLASSIFICATION_TYPE = U
NORAD_CAT_ID   = 66015
ELEMENT_SET_NO = 999
REV_AT_EPOCH   = 256
BSTAR          = -.16903472E-1
MEAN_MOTION_DOT = -.1838035E-1
MEAN_MOTION_DDOT = 0

CCSDS_OMM_VERS = 2.0
CREATION_DATE  = 
ORIGINATOR     = 

OBJECT_NAME    = STARLINK-35243
OBJECT_ID      = 2025-232M
CENTER_NAME    = EARTH
REF_FRAME      = TEME
TIME_SYSTEM    = UTC
MEAN_ELEMENT_THEORY = SGP/SGP4

EPOCH          = 2025-10-30T22:00:01.999584
MEAN_MOTION    = 15.70388136
ECCENTRICITY   = .00011347
INCLINATION    = 53.1590
RA_OF_ASC_NODE = 350.2499
ARG_OF_PERICENTER = 72.2313
MEAN_ANOMALY   = 40.9819

EPHEMERIS_TYPE = 0
CLASSIFICATION_TYPE = U
NORAD_CAT_ID   = 66016
ELEMENT_SET_NO = 999
REV_AT_EPOCH   = 267
BSTAR          = -.16906613E-1
MEAN_MOTION_DOT = -.1837952E-1
MEAN_MOTION_DDOT = 0

CCSDS_OMM_VERS = 2.0
CREATION_DATE  = 
ORIGINATOR     = 

OBJECT_NAME    = STARLINK-35398
OBJECT_ID      = 2025-232N
CENTER_NAME    = EARTH
REF_FRAME      = TEME
TIME_SYSTEM    = UTC
MEAN_ELEMENT_THEORY = SGP/SGP4

EPOCH          = 2025-10-30T22:00:01.999584
MEAN_MOTION    = 15.70393788
ECCENTRICITY   = .00010587
INCLINATION    = 53.1589
RA_OF_ASC_NODE = 350.2383
ARG_OF_PERICENTER = 68.2318
MEAN_ANOMALY   = 50.7256

EPHEMERIS_TYPE = 0
CLASSIFICATION_TYPE = U
NORAD_CAT_ID   = 66017
ELEMENT_SET_NO = 999
REV_AT_EPOCH   = 259
BSTAR          = -.16941514E-1
MEAN_MOTION_DOT = -.1841569E-1
MEAN_MOTION_DDOT = 0

CCSDS_OMM_VERS = 2.0
CREATION_DATE  = 
ORIGINATOR     = 

OBJECT_NAME    = STARLINK-35376
OBJECT_ID      = 2025-232P
CENTER_NAME    = EARTH
REF_FRAME      = TEME
TIME_SYSTEM    = UTC
MEAN_ELEMENT_THEORY = SGP/SGP4

EPOCH          = 2025-10-30T22:00:01.999584
MEAN_MOTION    = 15.70391987
ECCENTRICITY   = .00013597
INCLINATION    = 53.1590
RA_OF_ASC_NODE = 350.2421
ARG_OF_PERICENTER = 70.1509
MEAN_ANOMALY   = 46.8886

EPHEMERIS_TYPE = 0
CLASSIFICATION_TYPE = U
NORAD_CAT_ID   = 66018
ELEMENT_SET_NO = 999
REV_AT_EPOCH   = 267
BSTAR          = -.16910945E-1
MEAN_MOTION_DOT = -.1838801E-1
MEAN_MOTION_DDOT = 0

CCSDS_OMM_VERS = 2.0
CREATION_DATE  = 
ORIGINATOR     = 

OBJECT_NAME    = STARLINK-35382
OBJECT_ID      = 2025-232Q
CENTER_NAME    = EARTH
REF_FRAME      = TEME
TIME_SYSTEM    = UTC
MEAN_ELEMENT_THEORY = SGP/SGP4

EPOCH          = 2025-10-30T22:00:01.999584
MEAN_MOTION    = 15.70389628
ECCENTRICITY   = .00011855
INCLINATION    = 53.1590
RA_OF_ASC_NODE = 350.2534
ARG_OF_PERICENTER = 71.0188
MEAN_ANOMALY   = 40.2735

EPHEMERIS_TYPE = 0
CLASSIFICATION_TYPE = U
NORAD_CAT_ID   = 66019
ELEMENT_SET_NO = 999
REV_AT_EPOCH   = 267
BSTAR          = -.16889235E-1
MEAN_MOTION_DOT = -.1836452E-1
MEAN_MOTION_DDOT = 0

CCSDS_OMM_VERS = 2.0
CREATION_DATE  = 
ORIGINATOR     = 

OBJECT_NAME    = STARLINK-35430
OBJECT_ID      = 2025-232R
CENTER_NAME    = EARTH
REF_FRAME      = TEME
TIME_SYSTEM    = UTC
MEAN_ELEMENT_THEORY = SGP/SGP4

EPOCH          = 2025-10-30T22:00:01.999584
MEAN_MOTION    = 15.70388017
ECCENTRICITY   = .00011166
INCLINATION    = 53.1587
RA_OF_ASC_NODE = 350.2295
ARG_OF_PERICENTER = 77.7596
MEAN_ANOMALY   = 45.0380

EPHEMERIS_TYPE = 0
CLASSIFICATION_TYPE = U
NORAD_CAT_ID   = 66020
ELEMENT_SET_NO = 999
REV_AT_EPOCH   = 266
BSTAR          = -.16902566E-1
MEAN_MOTION_DOT = -.1837548E-1
MEAN_MOTION_DDOT = 0

CCSDS_OMM_VERS = 2.0
CREATION_DATE  = 
ORIGINATOR     = 

OBJECT_NAME    = STARLINK-35432
OBJECT_ID      = 2025-232S
CENTER_NAME    = EARTH
REF_FRAME      = TEME
TIME_SYSTEM    = UTC
MEAN_ELEMENT_THEORY = SGP/SGP4

EPOCH          = 2025-10-30T22:00:01.999584
MEAN_MOTION    = 15.70388642
ECCENTRICITY   = .00011552
INCLINATION    = 53.1587
RA_OF_ASC_NODE = 350.2336
ARG_OF_PERICENTER = 79.1076
MEAN_ANOMALY   = 41.7727

EPHEMERIS_TYPE = 0
CLASSIFICATION_TYPE = U
NORAD_CAT_ID   = 66021
ELEMENT_SET_NO = 999
REV_AT_EPOCH   = 259
BSTAR          = -.1689928E-1
MEAN_MOTION_DOT = -.1837311E-1
MEAN_MOTION_DDOT = 0

